LEMUR-1                 
1 40044U 14033AL  26162.36532267  .00001988  00000+0  23304-3 0  9994
2 40044  97.7866 312.3005 0049743  97.2271 263.4603 14.85223149644609
LEMUR-2-GREENBERG       
1 42837U 17042N   26162.46705247  .00013082  00000+0  43649-3 0  9992
2 42837  97.3816 343.1197 0009063  33.8606 326.3213 15.31150950487517
LEMUR-2-ANDIS           
1 42838U 17042P   26162.44415079  .00016909  00000+0  50534-3 0  9994
2 42838  97.3677 343.2616 0008649  32.9058 327.2722 15.34617951487573
LEMUR-2-MONSON          
1 42839U 17042Q   26162.00500459  .00012667  00000+0  46797-3 0  9997
2 42839  97.4076 342.6414 0006828  27.7700 332.3903 15.27848617487227
LEMUR-2-FURIAUS         
1 42840U 17042R   26162.45680125  .00014890  00000+0  51338-3 0  9994
2 42840  97.3767 341.0779 0008429  86.5295 273.6910 15.30063384487334
LEMUR-2-PETERG          
1 42841U 17042S   26162.48996126  .00019411  00000+0  59777-3 0  9998
2 42841  97.3985 347.5128 0003709  19.1907 340.9475 15.33668998487568
LEMUR-2-DEMBITZ         
1 42842U 17042T   26162.47686502  .00012112  00000+0  41762-3 0  9998
2 42842  97.3819 344.1169 0007233  47.7722 312.4132 15.30118248487470
LEMUR-2-ZACHARY         
1 42845U 17042W   26162.50899729  .00043450  00000+0  77989-3 0  9991
2 42845  97.3605 354.0277 0003306  54.1443 306.0115 15.49775357488320
LEMUR-2-AMANDA-SVANTE   
1 48269U 21034B   26162.16106586  .00025885  00000+0  78927-3 0  9992
2 48269  97.5765 240.2895 0001546 230.7421 129.3685 15.33932852280134
LEMUR-2-SPECIAL-K       
1 48273U 21034F   26162.51797744  .00139185  00000+0  15215-2 0  9997
2 48273  97.5654 248.9719 0003598 232.3390 127.7542 15.62858795280801
LEMUR-2-EMBRIONOVIS     
1 56970U 23084AQ  26162.34421936  .00010990  00000+0  30171-3 0  9996
2 56970  97.6276 306.3207 0008093 343.3182  16.7795 15.37402040166780
LEMUR-2-DEVERILL-M-T    
1 57391U 23100F   26162.58062777  .00025193  00000+0  64334-3 0  9992
2 57391  99.4480 199.7206 0006818  68.1519 292.0445 15.39478216160388
LEMUR-2-BASS            
1 58259U 23174D   26162.50338349  .00016515  00000+0  37727-3 0  9994
2 58259  97.3848 247.1371 0007314 180.5107 179.6134 15.42905308144481
LEMUR-2-JK0903EM1407    
1 58336U 23174CJ  26162.21023925  .00022865  00000+0  38952-3 0  9995
2 58336  97.3916 252.5139 0005950 136.2348 223.9377 15.51370914144801
LEMUR-2-MJR092620       
1 58340U 23174CN  26162.52320658  .00018656  00000+0  40134-3 0  9995
2 58340  97.3973 252.4488 0007100 134.0834 226.1000 15.44667032144776
LEMUR-2-NIMBUS2000      
1 58899U 24022A   26162.55541062  .00015905  00000+0  40213-3 0  9996
2 58899  97.4121  12.4872 0010139 133.1211 227.0884 15.39817873131407
LEMUR-2-VALHALLA        
1 58900U 24022B   26162.55046247  .00015285  00000+0  39049-3 0  9990
2 58900  97.4118  12.4759 0010713 129.4736 230.7459 15.39502964131409
LEMUR-2-OBA-NI-JESU     
1 58902U 24022D   26162.60877459  .02495421  24271-5  12571-2 0  9993
2 58902  97.3664  27.5729 0006470 226.2338 133.8417 16.20690476132437
LEMUR-2-CAEL            
1 58903U 24022E   26162.56502850  .00016239  00000+0  39772-3 0  9994
2 58903  97.4101  13.4168 0009242 114.1190 246.1024 15.40792674131476
LEMUR-2-JOHNNYTRUONG    
1 59146U 24043BA  26162.37796717  .00033242  00000+0  41128-3 0  9994
2 59146  97.5365 313.7241 0004625 193.4171 166.6963 15.60030991127131
LEMUR-2-TOMATOKECHUP    
1 60471U 24149D   26162.17890456  .00009493  00000+0  27392-3 0  9995
2 60471  97.3799 244.2108 0000846 190.0298 170.0929 15.35903465101249
LEMUR-2-STELLA          
1 60533U 24149BT  26162.45561222  .00009531  00000+0  56356-3 0  9996
2 60533  97.6734 244.8857 0001654  98.8440 261.2977 15.11680945 99633
LEMUR-2-MARHISYAM       
1 60536U 24149BW  26162.50007707  .00010407  00000+0  62406-3 0  9995
2 60536  97.6884 245.3736 0003226 127.3427 232.8097 15.11145269 99625
LEMUR-2-AHMED-ASRAR     
1 60576U 24149DN  26162.47350203  .00009043  00000+0  52180-3 0  9999
2 60576  97.7001 247.4178 0002287  56.9195 303.2255 15.12580521 99702
LEMUR-2-LLOYD           
1 60577U 24149DP  26162.47286322  .00007998  00000+0  50790-3 0  9992
2 60577  97.6752 243.5992 0004724 152.4336 207.7144 15.09127185 99538
LEMUR-2-SQUIRRELCOMM    
1 60578U 24149DQ  26162.47921694  .00004756  00000+0  32094-3 0  9997
2 60578  97.6717 243.4087 0006988  78.2804 281.9207 15.07087673 99543
LEMUR-2-SIERRINI        
1 60579U 24149DR  26162.58864439  .00010701  00000+0  64713-3 0  9993
2 60579  97.6837 245.1560 0005398 183.1230 176.9967 15.10825559 99616
LEMUR-2-WILSON          
1 62694U 25009CP  26162.47336024  .00001639  00000+0  15453-3 0  9998
2 62694  97.7023 241.0382 0004348  69.2130 290.9556 14.95139148 76506
LEMUR-2-STAR-FOX        
1 62696U 25009CR  26162.16546740  .00006662  00000+0  50723-3 0  9994
2 62696  97.6952 243.8175 0003202 127.1650 232.9868 15.02413354 76658
