OBJECT_NAME,OBJECT_ID,EPOCH,MEAN_MOTION,ECCENTRICITY,INCLINATION,RA_OF_ASC_NODE,ARG_OF_PERICENTER,MEAN_ANOMALY,EPHEMERIS_TYPE,CLASSIFICATION_TYPE,NORAD_CAT_ID,ELEMENT_SET_NO,REV_AT_EPOCH,BSTAR,MEAN_MOTION_DOT,MEAN_MOTION_DDOT
LEMUR-1,2014-033AL,2026-06-11T08:46:03.878688,14.85223149,.0049743,97.7866,312.3005,97.2271,263.4603,0,U,40044,999,64460,.23303565E-3,.1988E-4,0
LEMUR-2-GREENBERG,2017-042N,2026-06-11T11:12:33.333408,15.31150950,.00090636,97.3816,343.1197,33.8606,326.3213,0,U,42837,999,48751,.43649323E-3,.13082E-3,0
LEMUR-2-ANDIS,2017-042P,2026-06-11T10:39:34.628256,15.34617951,.00086498,97.3677,343.2616,32.9058,327.2722,0,U,42838,999,48757,.50533941E-3,.16909E-3,0
LEMUR-2-MONSON,2017-042Q,2026-06-11T00:07:12.396576,15.27848617,.00068284,97.4076,342.6414,27.7700,332.3903,0,U,42839,999,48722,.46797081E-3,.12667E-3,0
LEMUR-2-FURIAUS,2017-042R,2026-06-11T10:57:47.628000,15.30063384,.00084295,97.3767,341.0779,86.5295,273.6910,0,U,42840,999,48733,.5133802E-3,.1489E-3,0
LEMUR-2-PETERG,2017-042S,2026-06-11T11:45:32.652864,15.33668998,.0003709,97.3985,347.5128,19.1907,340.9475,0,U,42841,999,48756,.59776986E-3,.19411E-3,0
LEMUR-2-DEMBITZ,2017-042T,2026-06-11T11:26:41.137728,15.30118248,.0007233,97.3819,344.1169,47.7722,312.4132,0,U,42842,999,48747,.41761783E-3,.12112E-3,0
LEMUR-2-ZACHARY,2017-042W,2026-06-11T12:12:57.365856,15.49775357,.00033067,97.3605,354.0277,54.1443,306.0115,0,U,42845,999,48832,.77988796E-3,.4345E-3,0
LEMUR-2-AMANDA-SVANTE,2021-034B,2026-06-11T03:51:56.090304,15.33932852,.00015466,97.5765,240.2895,230.7421,129.3685,0,U,48269,999,28013,.78927463E-3,.25885E-3,0
LEMUR-2-SPECIAL-K,2021-034F,2026-06-11T12:25:53.250816,15.62858795,.0003598,97.5654,248.9719,232.3390,127.7542,0,U,48273,999,28080,.15214619E-2,.139185E-2,0
LEMUR-2-EMBRIONOVIS,2023-084AQ,2026-06-11T08:15:40.552704,15.37402040,.00080933,97.6276,306.3207,343.3182,16.7795,0,U,56970,999,16678,.30171437E-3,.1099E-3,0
LEMUR-2-DEVERILL-M-T,2023-100F,2026-06-11T13:56:06.239328,15.39478216,.00068182,99.4480,199.7206,68.1519,292.0445,0,U,57391,999,16038,.64333553E-3,.25193E-3,0
LEMUR-2-BASS,2023-174D,2026-06-11T12:04:52.333536,15.42905308,.00073141,97.3848,247.1371,180.5107,179.6134,0,U,58259,999,14448,.3772698E-3,.16515E-3,0
LEMUR-2-JK0903EM1407,2023-174CJ,2026-06-11T05:02:44.671200,15.51370914,.00059504,97.3916,252.5139,136.2348,223.9377,0,U,58336,999,14480,.38952096E-3,.22865E-3,0
LEMUR-2-MJR092620,2023-174CN,2026-06-11T12:33:25.048512,15.44667032,.00071005,97.3973,252.4488,134.0834,226.1000,0,U,58340,999,14477,.40133606E-3,.18656E-3,0
LEMUR-2-NIMBUS2000,2024-022A,2026-06-11T13:19:47.477568,15.39817873,.00101396,97.4121,12.4872,133.1211,227.0884,0,U,58899,999,13140,.40213247E-3,.15905E-3,0
LEMUR-2-VALHALLA,2024-022B,2026-06-11T13:12:39.957408,15.39502964,.00107138,97.4118,12.4759,129.4736,230.7459,0,U,58900,999,13140,.39048886E-3,.15285E-3,0
LEMUR-2-OBA-NI-JESU,2024-022D,2026-06-11T14:36:38.124576,16.20690476,.00064707,97.3664,27.5729,226.2338,133.8417,0,U,58902,999,13243,.12570711E-2,.2495421E-1,.2427123E-5
LEMUR-2-CAEL,2024-022E,2026-06-11T13:33:38.462400,15.40792674,.00092428,97.4101,13.4168,114.1190,246.1024,0,U,58903,999,13147,.39772059E-3,.16239E-3,0
LEMUR-2-JOHNNYTRUONG,2024-043BA,2026-06-11T09:04:16.363488,15.60030991,.0004625,97.5365,313.7241,193.4171,166.6963,0,U,59146,999,12713,.41127585E-3,.33242E-3,0
LEMUR-2-TOMATOKECHUP,2024-149D,2026-06-11T04:17:37.353984,15.35903465,.00008465,97.3799,244.2108,190.0298,170.0929,0,U,60471,999,10124,.27392444E-3,.9493E-4,0
LEMUR-2-STELLA,2024-149BT,2026-06-11T10:56:04.895808,15.11680945,.00016545,97.6734,244.8857,98.8440,261.2977,0,U,60533,999,9963,.56356148E-3,.9531E-4,0
LEMUR-2-MARHISYAM,2024-149BW,2026-06-11T12:00:06.658848,15.11145269,.00032265,97.6884,245.3736,127.3427,232.8097,0,U,60536,999,9962,.62405852E-3,.10407E-3,0
LEMUR-2-AHMED-ASRAR,2024-149DN,2026-06-11T11:21:50.575392,15.12580521,.00022879,97.7001,247.4178,56.9195,303.2255,0,U,60576,999,9970,.52179896E-3,.9043E-4,0
LEMUR-2-LLOYD,2024-149DP,2026-06-11T11:20:55.382208,15.09127185,.00047244,97.6752,243.5992,152.4336,207.7144,0,U,60577,999,9953,.50790295E-3,.7998E-4,0
LEMUR-2-SQUIRRELCOMM,2024-149DQ,2026-06-11T11:30:04.343616,15.07087673,.00069881,97.6717,243.4087,78.2804,281.9207,0,U,60578,999,9954,.32094484E-3,.4756E-4,0
LEMUR-2-SIERRINI,2024-149DR,2026-06-11T14:07:38.875296,15.10825559,.00053988,97.6837,245.1560,183.1230,176.9967,0,U,60579,999,9961,.64712676E-3,.10701E-3,0
LEMUR-2-WILSON,2025-009CP,2026-06-11T11:21:38.324736,14.95139148,.00043481,97.7023,241.0382,69.2130,290.9556,0,U,62694,999,7650,.1545343E-3,.1639E-4,0
LEMUR-2-STAR-FOX,2025-009CR,2026-06-11T03:58:16.383360,15.02413354,.00032023,97.6952,243.8175,127.1650,232.9868,0,U,62696,999,7665,.507229E-3,.6662E-4,0
